{"type": "FeatureCollection", "features": [{"type": "Feature", "geometry": {"type": "Point", "coordinates": [35.103, 32.176]}, "properties": {"n": "יוש/ 5/ 11/ 113", "name": "שינוי הוראות ומגבללות בניה, קדומים", "place": "קדומים,שומרון", "st": "אישור", "sec": "jewish", "u": 0, "yr": "2026"}}, {"type": "Feature", "geometry": {"type": "Point", "coordinates": [34.95725, 31.3757]}, "properties": {"n": "יוש/ 2/ 515", "name": "טנא עומרים-שינוי יעוד למבנים ומוסדות ציבור", "place": "הר חברון,טנא", "st": "אישור", "sec": "jewish", "u": 0, "yr": "2026"}}, {"type": "Feature", "geometry": {"type": "Point", "coordinates": [35.036, 31.938]}, "properties": {"n": "יוש/ 7/ 3/ 6/ 210", "name": "מודיעין עילית, כביש פנימי לבית עלמין", "place": "מודיעין עילית", "st": "אישור", "sec": "jewish", "u": 0, "yr": "2026"}}, {"type": "Feature", "geometry": {"type": "Point", "coordinates": [35.147, 31.653]}, "properties": {"n": "יוש/ 94/ 5/ 410", "name": "קביעת הוראות ומגבלות בניה ברח' הזורעים 72-80, העומר 50 , אפרת", "place": "אפרת", "st": "בבדיקה תכנונית", "sec": "jewish", "u": 0, "yr": "2026"}}, {"type": "Feature", "geometry": {"type": "Point", "coordinates": [35.1323, 31.9394]}, "properties": {"n": "יוש/ 7/ 2/ 235", "name": "טלמון, נריה, שינוי ייעוד מדרך למגורים, הסדרת גבולות", "place": "טלמון,מטה בנימין", "st": "אישור", "sec": "jewish", "u": 0, "yr": "2026"}}, {"type": "Feature", "geometry": {"type": "Point", "coordinates": [35.16875, 31.86233]}, "properties": {"n": "יוש/ 18/ 5/ 4/ 220", "name": "גבעת זאב, פיצול מחד לדו משפחתי, מגרש 167, האתרוג 78", "place": "גבעת זאב", "st": "בבדיקה תכנונית", "sec": "jewish", "u": 1, "yr": "2026"}}, {"type": "Feature", "geometry": {"type": "Point", "coordinates": [35.2, 31.94]}, "properties": {"n": "יוש/ 5/ 200", "name": "תוספת שימוש למטווחים", "place": "מטה בנימין", "st": "הפקדה להתנגדויות/השגות", "sec": "jewish", "u": 0, "yr": "2026"}}, {"type": "Feature", "geometry": {"type": "Point", "coordinates": [35.26248, 32.0695]}, "properties": {"n": "יוש/ 16/ 237", "name": "עלי,שינוי ממגרש חד משפחתי ל מגרשים חד משפחתיים", "place": "מטה בנימין,עלי", "st": "הפקדה להתנגדויות/השגות", "sec": "jewish", "u": 1, "yr": "2026"}}, {"type": "Feature", "geometry": {"type": "Point", "coordinates": [35.05081, 32.24282]}, "properties": {"n": "יוש/ 6/ 2/ 1/ 112", "name": "סלעית, פוטו וולטאי", "place": "סלעית,שומרון", "st": "במילוי תנאים להפקדה", "sec": "jewish", "u": 0, "yr": "2026"}}, {"type": "Feature", "geometry": {"type": "Point", "coordinates": [35.40343, 32.07076]}, "properties": {"n": "יוש/ 18/ 310", "name": "מעלה אפרים, שינוי הוראות בניה בתחום תכניות תקפות", "place": "מעלה אפרים", "st": "אישור", "sec": "jewish", "u": 0, "yr": "2026"}}, {"type": "Feature", "geometry": {"type": "Point", "coordinates": [35.02239, 31.93117]}, "properties": {"n": "יוש/ 3/ 232", "name": "חשמונאים, הרחבת היישוב", "place": "חשמונאים,מטה בנימין", "st": "אישור", "sec": "jewish", "u": 478, "yr": "2026"}}, {"type": "Feature", "geometry": {"type": "Point", "coordinates": [35.29949, 32.05522]}, "properties": {"n": "יוש/ 1/ 2/ ת/ 205", "name": "א.ת. שילה, שינוי גובה בניה מירבי מגרש 918", "place": "מטה בנימין,שילה", "st": "אישור", "sec": "jewish", "u": 0, "yr": "2026"}}, {"type": "Feature", "geometry": {"type": "Point", "coordinates": [35.16378, 32.2253]}, "properties": {"n": "יוש/ 3/ 114", "name": "הר ברכה שינוי יעוד למגורים", "place": "ברכה,שומרון", "st": "במילוי תנאים להפקדה", "sec": "jewish", "u": 922, "yr": "2026"}}, {"type": "Feature", "geometry": {"type": "Point", "coordinates": [35.12677, 31.65492]}, "properties": {"n": "יוש/ א/ 1/ 2/ 418", "name": "גבעות, שכונת מגורים, שלב א'", "place": "אלון שבות,גוש עציון", "st": "בהליך אישור", "sec": "jewish", "u": 1006, "yr": "2026"}}, {"type": "Feature", "geometry": {"type": "Point", "coordinates": [35.16875, 31.86233]}, "properties": {"n": "יוש/ 1/ 2/ 26/ 220", "name": "תכנית מפרטת מס'  1/ 2/ 26/ 220 גבעת זאב", "place": "גבעת זאב", "st": "אישור", "sec": "jewish", "u": 56, "yr": "2026"}}, {"type": "Feature", "geometry": {"type": "Point", "coordinates": [35.03208, 32.11772]}, "properties": {"n": "יוש/ 25/ 122", "name": "שינוי הוראות בניה במגרש 388 בשערי תקוה", "place": "שומרון,שערי תקווה", "st": "אישור", "sec": "jewish", "u": 0, "yr": "2026"}}, {"type": "Feature", "geometry": {"type": "Point", "coordinates": [35.2, 31.94]}, "properties": {"n": "יוש/ 1/ 2/ 200", "name": "מטה בנימין, קביעת הוראות ומגבלות בניה למגרשים המיועדים למבני ציבור", "place": "מטה בנימין", "st": "אישור", "sec": "jewish", "u": 0, "yr": "2026"}}, {"type": "Feature", "geometry": {"type": "Point", "coordinates": [35.44455, 32.00054]}, "properties": {"n": "יוש/ 1/ 2/ 317", "name": "שינוי הוראות בניה במגרשים ביעוד מבני משק בתוכנתי מאושרת 317/2", "place": "גלגל,ערבות הירדן", "st": "אישור", "sec": "jewish", "u": 0, "yr": "2026"}}, {"type": "Feature", "geometry": {"type": "Point", "coordinates": [35.061, 32.093]}, "properties": {"n": "יוש/ 27/ 125", "name": "אלקנה, שינוי יעוד משטח חקלאי לאזור מגורים ג'", "place": "אלקנה", "st": "אישור", "sec": "jewish", "u": 21, "yr": "2026"}}, {"type": "Feature", "geometry": {"type": "Point", "coordinates": [35.49205, 32.11287]}, "properties": {"n": "יוש/ 1/ 6/ 312", "name": "משואה, הרחבת היישוב שלב א'", "place": "משואה,ערבות הירדן", "st": "אישור", "sec": "jewish", "u": 517, "yr": "2026"}}, {"type": "Feature", "geometry": {"type": "Point", "coordinates": [35.16875, 31.86233]}, "properties": {"n": "יוש/ 1/ 2/ 9/ 220", "name": "גבעת זאב, שינוי יעוד ממסחר תעסוקה ואחסנה למגורים, מסחר ותעסוקה", "place": "גבעת זאב", "st": "בבדיקה תכנונית", "sec": "jewish", "u": 400, "yr": "2026"}}, {"type": "Feature", "geometry": {"type": "Point", "coordinates": [35.29949, 32.05522]}, "properties": {"n": "יוש/ 25/ 205", "name": "הרחבת שכונת מגורים", "place": "מטה בנימין,שילה", "st": "בהליך אישור", "sec": "jewish", "u": 90, "yr": "2026"}}, {"type": "Feature", "geometry": {"type": "Point", "coordinates": [35.298, 31.776]}, "properties": {"n": "יוש/ 17/ 420", "name": "תוספת שימושים לדרכים וקביעת בינוי במגרשים למבנ\"צ", "place": "מעלה אדומים", "st": "אישור", "sec": "jewish", "u": 0, "yr": "2026"}}, {"type": "Feature", "geometry": {"type": "Point", "coordinates": [35.51563, 32.36523]}, "properties": {"n": "יוש/ 3/ 301", "name": "מחולה השלמת הוראות חסרות בתקנון של תכנית מתאר מפורטת מאושרת מס' יוש/ 301", "place": "מחולה,ערבות הירדן", "st": "אישור", "sec": "jewish", "u": 0, "yr": "2026"}}, {"type": "Feature", "geometry": {"type": "Point", "coordinates": [35.25009, 32.11907]}, "properties": {"n": "יוש/ 6/ 131", "name": "כפר תפוח, רה תכנון שכונת מגורים והגדלת צפיפות", "place": "כפר תפוח,שומרון", "st": "אישור", "sec": "jewish", "u": 105, "yr": "2026"}}, {"type": "Feature", "geometry": {"type": "Point", "coordinates": [35.33163, 32.23571]}, "properties": {"n": "יוש/ 1/ 107", "name": "אלון מורה, שינוי יעוד משטח חקלאי למגורים ג'", "place": "אלון מורה,שומרון", "st": "הפקדה להתנגדויות/השגות", "sec": "jewish", "u": 83, "yr": "2026"}}, {"type": "Feature", "geometry": {"type": "Point", "coordinates": [35.52408, 32.17283]}, "properties": {"n": "יוש/ 4/ 308", "name": "הסדרת היישוב ארגמן ודרך גישה", "place": "ארגמן,ערבות הירדן", "st": "בבדיקה תכנונית", "sec": "infrastructure_regional", "u": 234, "yr": "2026"}}, {"type": "Feature", "geometry": {"type": "Point", "coordinates": [35.147, 31.653]}, "properties": {"n": "יוש/ 1/ 11/ 410", "name": "הוספת שימושים מסחריים בשצפים במרחב אפרת.", "place": "אפרת", "st": "הפקדה להתנגדויות/השגות", "sec": "jewish", "u": 0, "yr": "2026"}}, {"type": "Feature", "geometry": {"type": "Point", "coordinates": [35.30177, 31.74702]}, "properties": {"n": "יוש/ 4/ 421", "name": "ישוב קידר - שכונה חדשה", "place": "גוש עציון,קדר", "st": "אישור", "sec": "jewish", "u": 330, "yr": "2026"}}, {"type": "Feature", "geometry": {"type": "Point", "coordinates": [35.04694, 32.11919]}, "properties": {"n": "יוש/ 1/ 7/ 126", "name": "תוספת 48 יח\"ד קטנות במגרש 2009 בעץ אפרים", "place": "עץ אפרים,שומרון", "st": "הכרעה בהתנגדויות / אישור", "sec": "jewish", "u": 48, "yr": "2026"}}, {"type": "Feature", "geometry": {"type": "Point", "coordinates": [35.093, 32.179]}, "properties": {"n": "יוש/ 6/ 116", "name": "מעלה שומרון שינוי קו בניין", "place": "קרני שומרון", "st": "אישור", "sec": "jewish", "u": 0, "yr": "2026"}}, {"type": "Feature", "geometry": {"type": "Point", "coordinates": [35.298, 31.776]}, "properties": {"n": "יוש/ 4/ 59/ 7/ 1/ 420", "name": "מעלה אדומים, שינוי סעיפי שיווק עבור מגרשי \"בנה ביתך\"", "place": "מעלה אדומים", "st": "אישור", "sec": "jewish", "u": 0, "yr": "2026"}}, {"type": "Feature", "geometry": {"type": "Point", "coordinates": [35.05317, 32.06184]}, "properties": {"n": "יוש/ 1/ 6/ 160", "name": "פדואל, שינוי הוראות ומגבלות בניה מגרש 2039", "place": "פדואל,שומרון", "st": "הפקדה להתנגדויות/השגות", "sec": "jewish", "u": 0, "yr": "2026"}}, {"type": "Feature", "geometry": {"type": "Point", "coordinates": [35.16875, 31.86233]}, "properties": {"n": "יוש/ 12/ 7/ 220", "name": "תוספת זכויות בניה במגרש 126", "place": "גבעת זאב", "st": "אישור", "sec": "jewish", "u": 0, "yr": "2026"}}, {"type": "Feature", "geometry": {"type": "Point", "coordinates": [35.17481, 32.42073]}, "properties": {"n": "יוש/ 1/ 2/ 104", "name": "מבוא דותן, הרחבת היישוב", "place": "מבוא דותן,שומרון", "st": "אישור", "sec": "jewish", "u": 251, "yr": "2026"}}, {"type": "Feature", "geometry": {"type": "Point", "coordinates": [35.42303, 32.16495]}, "properties": {"n": "יוש/ 3/ 309", "name": "מכורה - מתקנים פוטו-וולטאיים", "place": "מכורה,ערבות הירדן", "st": "בבדיקה תכנונית", "sec": "jewish", "u": 358, "yr": "2026"}}, {"type": "Feature", "geometry": {"type": "Point", "coordinates": [35.147, 31.653]}, "properties": {"n": "יוש/ 70/ 4/ 410", "name": "שינוי הוראות ומגבלות בניה במגרש 543, רח' הל\"ה, אפרת.", "place": "אפרת", "st": "הפקדה להתנגדויות/השגות", "sec": "jewish", "u": 0, "yr": "2026"}}, {"type": "Feature", "geometry": {"type": "Point", "coordinates": [35.16875, 31.86233]}, "properties": {"n": "יוש/ 5/ 1/ 13/ 220", "name": "שינוי קו בניין ותוספת זכויות בניה במגרש 243/13", "place": "גבעת זאב", "st": "הפקדה להתנגדויות/השגות", "sec": "jewish", "u": 0, "yr": "2026"}}, {"type": "Feature", "geometry": {"type": "Point", "coordinates": [35.103, 32.176]}, "properties": {"n": "יוש/ 1/ 3/ 13/ 113", "name": "שינוי הוראות ומגבלות בניה מתוכנית מאושרת 113/13/3", "place": "קדומים", "st": "אישור", "sec": "jewish", "u": 0, "yr": "2026"}}, {"type": "Feature", "geometry": {"type": "Point", "coordinates": [34.99196, 32.13092]}, "properties": {"n": "יוש/ 23/ 9/ 3/ 121", "name": "שינוי הוראות ומגבלות בניה במגרש 388", "place": "אורנית", "st": "הפקדה להתנגדויות/השגות", "sec": "jewish", "u": 0, "yr": "2026"}}, {"type": "Feature", "geometry": {"type": "Point", "coordinates": [35.093, 32.179]}, "properties": {"n": "יוש/ 8/ 6/ 117", "name": "קרני שומרון, תוספת קומות לחניה תת קרקעית במגרש 908 המיועד למסחר", "place": "קרני שומרון", "st": "אישור", "sec": "jewish", "u": 0, "yr": "2026"}}, {"type": "Feature", "geometry": {"type": "Point", "coordinates": [35.16875, 31.86233]}, "properties": {"n": "יוש/ 1/ 1/ 5/ 4/ 220", "name": "גבעת זאב, מגרש מס' 179 שינוי קו בנין", "place": "גבעת זאב", "st": "הפקדה להתנגדויות/השגות", "sec": "jewish", "u": 0, "yr": "2026"}}, {"type": "Feature", "geometry": {"type": "Point", "coordinates": [35.298, 31.776]}, "properties": {"n": "יוש/ 37/ 1/ 420", "name": "מעלה אדומים, מוזיאון ,מיגרש 324", "place": "מעלה אדומים", "st": "אישור", "sec": "jewish", "u": 0, "yr": "2026"}}, {"type": "Feature", "geometry": {"type": "Point", "coordinates": [35.16875, 31.86233]}, "properties": {"n": "יוש/ 47/ 2/ 215", "name": "הר שמואל, שינוי הוראות ומגבלות בניה, מגרש 1009, אבני החושן 88", "place": "גבעת זאב", "st": "בבדיקה תכנונית", "sec": "jewish", "u": 0, "yr": "2026"}}, {"type": "Feature", "geometry": {"type": "Point", "coordinates": [34.90344, 31.36292]}, "properties": {"n": "יוש/ ב/ 522", "name": "סנסנה, הרחבת הישוב שלב ב'", "place": "הר חברון,סנסנה", "st": "אישור", "sec": "jewish", "u": 100, "yr": "2026"}}, {"type": "Feature", "geometry": {"type": "Point", "coordinates": [35.10656, 32.10662]}, "properties": {"n": "יוש/ 19/ 5/ ת/ 130", "name": "א.ת. ברקן, שינוי הוראות בניה מגרשים 10 11", "place": "ברקן,שומרון", "st": "בבדיקה תכנונית", "sec": "jewish", "u": 0, "yr": "2026"}}, {"type": "Feature", "geometry": {"type": "Point", "coordinates": [35.04694, 32.11919]}, "properties": {"n": "יוש/ 1/ 8/ 126", "name": "עץ אפרים - שינוי קו בנין", "place": "עץ אפרים,שומרון", "st": "אישור", "sec": "jewish", "u": 0, "yr": "2026"}}, {"type": "Feature", "geometry": {"type": "Point", "coordinates": [35.33163, 32.23571]}, "properties": {"n": "יוש/ 2/ 11/ 107", "name": "אלון מורה, מגורים", "place": "אלון מורה,שומרון", "st": "בבדיקה תכנונית", "sec": "jewish", "u": 0, "yr": "2026"}}, {"type": "Feature", "geometry": {"type": "Point", "coordinates": [35.20194, 32.33689]}, "properties": {"n": "יוש/ 2/ 108", "name": "שא נור, הקמת יישוב, מגורים ומבני ציבור", "place": "שא נור,שומרון", "st": "אישור", "sec": "jewish", "u": 126, "yr": "2026"}}, {"type": "Feature", "geometry": {"type": "Point", "coordinates": [35.16875, 31.86233]}, "properties": {"n": "יוש/ 36/ 1/ 220", "name": "גבעת זאב, תוספת שטחי בניה , שינוי קו בניין ותוספת קומה.", "place": "גבעת זאב", "st": "הפקדה להתנגדויות/השגות", "sec": "jewish", "u": 0, "yr": "2026"}}, {"type": "Feature", "geometry": {"type": "Point", "coordinates": [35.23377, 32.16861]}, "properties": {"n": "יוש/ 2/ 1/ 169", "name": "יצהר, שינוי קו בניין אחורי וצידי במגרש 605", "place": "יצהר,שומרון", "st": "אישור", "sec": "jewish", "u": 0, "yr": "2026"}}, {"type": "Feature", "geometry": {"type": "Point", "coordinates": [35.04719, 31.96403]}, "properties": {"n": "יוש/ 5/ 3/ 206", "name": "נילי, שינוי הוראות בניה במגרש 1009 למבני ציבור", "place": "מטה בנימין,ניל\"י", "st": "בבדיקה תכנונית", "sec": "jewish", "u": 0, "yr": "2026"}}, {"type": "Feature", "geometry": {"type": "Point", "coordinates": [34.99196, 32.13092]}, "properties": {"n": "יוש/ 22/ 9/ 3/ 121", "name": "אורנית, הפיכת מגרש חד משפחתי למגרש דו משפחתי", "place": "אורנית", "st": "הפקדה להתנגדויות/השגות", "sec": "jewish", "u": 0, "yr": "2026"}}, {"type": "Feature", "geometry": {"type": "Point", "coordinates": [35.0907, 32.08213]}, "properties": {"n": "יוש/ 2/ 150", "name": "יוש/ 2/ 150 - ברוכין הרחבה למגורים", "place": "ברוכין,שומרון", "st": "בבדיקה תכנונית", "sec": "jewish", "u": 0, "yr": "2026"}}, {"type": "Feature", "geometry": {"type": "Point", "coordinates": [34.99196, 32.13092]}, "properties": {"n": "יוש/ 19/ 121", "name": "אורנית, שכונת מגורים", "place": "אורנית", "st": "במילוי תנאים להפקדה", "sec": "jewish", "u": 30, "yr": "2026"}}, {"type": "Feature", "geometry": {"type": "Point", "coordinates": [35.40069, 31.56967]}, "properties": {"n": "יוש/ 8/ 607", "name": "מצפה שלם, 168 יח\"ד", "place": "מגילות,מגילות ים המלח,מצפה שלם", "st": "הפקדה להתנגדויות/השגות", "sec": "jewish", "u": 168, "yr": "2026"}}, {"type": "Feature", "geometry": {"type": "Point", "coordinates": [35.29949, 32.05522]}, "properties": {"n": "יוש/ 27/ 205", "name": "שילה, מגרש מס' 132 מחד לדו משפחתי", "place": "מטה בנימין,שילה", "st": "בבדיקה תכנונית", "sec": "jewish", "u": 0, "yr": "2026"}}, {"type": "Feature", "geometry": {"type": "Point", "coordinates": [35.21929, 31.78886]}, "properties": {"n": "יוש/ 4/ 517", "name": "הרחבת היישוב, בית חגי.", "place": "הר חברון,חגי", "st": "הפקדה להתנגדויות/השגות", "sec": "jewish", "u": 225, "yr": "2026"}}, {"type": "Feature", "geometry": {"type": "Point", "coordinates": [35.17, 32.104]}, "properties": {"n": "יוש/ 24/ 130", "name": "אריאל, הרחבת שכונת מגורים", "place": "אריאל", "st": "בבדיקה תכנונית", "sec": "jewish", "u": 0, "yr": "2026"}}, {"type": "Feature", "geometry": {"type": "Point", "coordinates": [35.1323, 31.9394]}, "properties": {"n": "יוש/ 15/ 235", "name": "טלמון, בית עלמין ומבני ציבור", "place": "טלמון,מטה בנימין", "st": "הפקדה להתנגדויות/השגות", "sec": "infrastructure_regional", "u": 0, "yr": "2026"}}, {"type": "Feature", "geometry": {"type": "Point", "coordinates": [35.12535, 31.66765]}, "properties": {"n": "יוש/ 6/ 1/ 403", "name": "ראש צורים קביעת השימושים המותרים ביעודי הקרקע", "place": "גוש עציון,ראש צורים", "st": "הפקדה להתנגדויות/השגות", "sec": "jewish", "u": 246, "yr": "2026"}}, {"type": "Feature", "geometry": {"type": "Point", "coordinates": [35.088, 31.417]}, "properties": {"n": "יוש/ 2/ 512", "name": "עותניאל", "place": "הר חברון,עתניאל", "st": "אישור", "sec": "jewish", "u": 156, "yr": "2026"}}, {"type": "Feature", "geometry": {"type": "Point", "coordinates": [35.008, 32.164]}, "properties": {"n": "יוש/ 1/ 21/ 115", "name": "אלפי מנשה, בריכות  פרטיות", "place": "אלפי מנשה", "st": "אישור", "sec": "jewish", "u": 0, "yr": "2026"}}, {"type": "Feature", "geometry": {"type": "Point", "coordinates": [35.103, 32.176]}, "properties": {"n": "יוש/ 3/ 11/ 113", "name": "קדומים, הרחבת שכונת מגורים \"צומת ורדים\"", "place": "קדומים", "st": "אישור", "sec": "jewish", "u": 288, "yr": "2026"}}, {"type": "Feature", "geometry": {"type": "Point", "coordinates": [35.16875, 31.86233]}, "properties": {"n": "יוש/ 3/ 3/ 10/ 220", "name": "גבעת זאב, שינוי קווי הבנין , קביעת זכויות במגרש 611", "place": "גבעת זאב", "st": "הפקדה להתנגדויות/השגות", "sec": "jewish", "u": 0, "yr": "2026"}}, {"type": "Feature", "geometry": {"type": "Point", "coordinates": [35.33521, 31.82528]}, "properties": {"n": "יוש/ 2/ 2/ 227", "name": "אלון, שינוי ייעוד למגורים א' ושביל", "place": "כפר אדומים,מטה בנימין", "st": "הפקדה להתנגדויות/השגות", "sec": "jewish", "u": 1, "yr": "2026"}}, {"type": "Feature", "geometry": {"type": "Point", "coordinates": [34.99955, 32.10675]}, "properties": {"n": "יוש/ 18/ 126", "name": "תוספת יח\"ד", "place": "שער השומרון,שער שומרון", "st": "אישור", "sec": "jewish", "u": 1, "yr": "2026"}}, {"type": "Feature", "geometry": {"type": "Point", "coordinates": [35.05317, 32.06184]}, "properties": {"n": "יוש/ 11/ 160", "name": "פדואל, הסדרת גבולות המגרשים ביעודים שונים", "place": "פדואל,שומרון", "st": "אישור", "sec": "jewish", "u": 12, "yr": "2026"}}, {"type": "Feature", "geometry": {"type": "Point", "coordinates": [35.1323, 31.9394]}, "properties": {"n": "יוש/ 2/ 12/ 235", "name": "טלמון, הרחבת היישוב", "place": "טלמון,מטה בנימין", "st": "הפקדה להתנגדויות/השגות", "sec": "jewish", "u": 200, "yr": "2026"}}, {"type": "Feature", "geometry": {"type": "Point", "coordinates": [35.036, 31.938]}, "properties": {"n": "יוש/ 12/ 1/ 9/ 210", "name": "שינוי קו בנין אחורי לתוספות בניה שכונת קריית ספר", "place": "מודיעין עילית", "st": "הפקדה להתנגדויות/השגות", "sec": "jewish", "u": 0, "yr": "2026"}}, {"type": "Feature", "geometry": {"type": "Point", "coordinates": [35.12956, 31.82686]}, "properties": {"n": "יוש/ 30/ 3/ 214", "name": "הרחבת הישוב הר אדר", "place": "הר אדר", "st": "בבדיקה תכנונית", "sec": "jewish", "u": 0, "yr": "2026"}}, {"type": "Feature", "geometry": {"type": "Point", "coordinates": [35.17, 32.104]}, "properties": {"n": "יוש/ 14/ 6/ ת/ 130", "name": "אריאל, אזור תעשייה, שינוי משצ\"פ לתעשייה", "place": "אריאל", "st": "אישור", "sec": "infrastructure_regional", "u": 0, "yr": "2026"}}, {"type": "Feature", "geometry": {"type": "Point", "coordinates": [35.147, 31.653]}, "properties": {"n": "יוש/ 3/ 19/ 3/ 410", "name": "תוספת שטחים עבור מתקנים הנדסיים בשצ\"פ", "place": "אפרת", "st": "אישור", "sec": "jewish", "u": 0, "yr": "2026"}}, {"type": "Feature", "geometry": {"type": "Point", "coordinates": [35.17, 32.104]}, "properties": {"n": "יוש/ 1/ 1/ 1/ 3/ 130", "name": "שינוי הגדרה  שטח מותר לבניה בתכנית 130/3/1/1", "place": "אריאל", "st": "הפקדה להתנגדויות/השגות", "sec": "jewish", "u": 0, "yr": "2026"}}, {"type": "Feature", "geometry": {"type": "Point", "coordinates": [35.16875, 31.86233]}, "properties": {"n": "יוש/ 5/ 12/ 10/ 220", "name": "גבעת זאב, תוספת קומה ,שינוי קו בניין והגדלת זכויות בניה במגרש 14", "place": "גבעת זאב", "st": "הפקדה להתנגדויות/השגות", "sec": "jewish", "u": 0, "yr": "2026"}}, {"type": "Feature", "geometry": {"type": "Point", "coordinates": [35.093, 32.179]}, "properties": {"n": "717-1557602", "name": "שינוי לתכנית מפורטת 117/8/3", "place": "קרני שומרון", "st": "במילוי תנאים להפקדה", "sec": "jewish", "u": 0, "yr": "2026"}}, {"type": "Feature", "geometry": {"type": "Point", "coordinates": [35.256, 31.878]}, "properties": {"n": "יוש/ 5/ 222", "name": "פסגות שינוי יעוד הקרקע", "place": "מטה בנימין,פסגות", "st": "הפקדה להתנגדויות/השגות", "sec": "jewish", "u": 295, "yr": "2026"}}, {"type": "Feature", "geometry": {"type": "Point", "coordinates": [35.18779, 31.58587]}, "properties": {"n": "יוש/ 3/ 2/ 414", "name": "מיצד, הרחבת שכונת מגורים", "place": "אספר,גוש עציון", "st": "אישור", "sec": "jewish", "u": 509, "yr": "2026"}}, {"type": "Feature", "geometry": {"type": "Point", "coordinates": [35.12, 32.17]}, "properties": {"n": "יוש/ ת/ 158", "name": "אזור תעשייה בוסתני חפץ", "place": "שומרון", "st": "אישור", "sec": "infrastructure_regional", "u": 0, "yr": "2026"}}, {"type": "Feature", "geometry": {"type": "Point", "coordinates": [35.12764, 32.1191]}, "properties": {"n": "יוש/ 10/ 4/ 170", "name": "רבבה - שינוי ממסחר למגורים", "place": "רבבה,שומרון", "st": "הפקדה להתנגדויות/השגות", "sec": "jewish", "u": 0, "yr": "2026"}}, {"type": "Feature", "geometry": {"type": "Point", "coordinates": [35.06335, 32.07112]}, "properties": {"n": "יוש/ 3/ א/ 4/ 132", "name": "עלי זהב, שינוי מחדש לדו", "place": "עלי זהב,שומרון", "st": "בבדיקה תכנונית", "sec": "jewish", "u": 0, "yr": "2026"}}, {"type": "Feature", "geometry": {"type": "Point", "coordinates": [35.13512, 31.9262]}, "properties": {"n": "יוש/ 5/ 1/ 234", "name": "דולב, מגרש 309, שינוי קו בנין צידי", "place": "דולב,מטה בנימין", "st": "אישור", "sec": "jewish", "u": 0, "yr": "2026"}}, {"type": "Feature", "geometry": {"type": "Point", "coordinates": [35.04376, 31.37345]}, "properties": {"n": "יוש/ 525", "name": "עשהאל, הקמת יישוב, מגורים, מבני ציבור ושצ\"פ", "place": "הר חברון,עשהאל", "st": "הפקדה להתנגדויות/השגות", "sec": "jewish", "u": 342, "yr": "2026"}}, {"type": "Feature", "geometry": {"type": "Point", "coordinates": [35.088, 31.417]}, "properties": {"n": "יוש/ 1/ 512", "name": "יישוב עותניאל - עדכון תכנון ותוספת יח\"ד (הרחבה)", "place": "הר חברון,עתניאל", "st": "בבדיקה תכנונית", "sec": "jewish", "u": 138, "yr": "2026"}}, {"type": "Feature", "geometry": {"type": "Point", "coordinates": [35.123, 31.693]}, "properties": {"n": "יוש/ 1/ 2/ א/ 7/ 426", "name": "ביתר עלית, תוספת יחידות דיור", "place": "ביתר עילית", "st": "אישור", "sec": "jewish", "u": 230, "yr": "2026"}}, {"type": "Feature", "geometry": {"type": "Point", "coordinates": [35.12692, 32.00631]}, "properties": {"n": "יוש/ 7/ 203", "name": "חלמיש, הרחבת היישוב", "place": "חלמיש,מטה בנימין", "st": "הפקדה להתנגדויות/השגות", "sec": "jewish", "u": 456, "yr": "2026"}}, {"type": "Feature", "geometry": {"type": "Point", "coordinates": [35.2, 31.94]}, "properties": {"n": "711-1557347", "name": "פארק תעשיות מכבים (230/1)", "place": "מטה בנימין", "st": "בבדיקה תכנונית", "sec": "infrastructure_regional", "u": 0, "yr": "2026"}}, {"type": "Feature", "geometry": {"type": "Point", "coordinates": [35.061, 32.093]}, "properties": {"n": "יוש/ 26/ 125", "name": "אלקנה, הרחבת שכונת מגורים", "place": "אלקנה", "st": "בבדיקת תנאי סף", "sec": "jewish", "u": 500, "yr": "2026"}}, {"type": "Feature", "geometry": {"type": "Point", "coordinates": [35.26248, 32.0695]}, "properties": {"n": "יוש/ 18/ 237", "name": "עלי, שינוי שלביות להוצאת היתרי בניה", "place": "מטה בנימין,עלי", "st": "בבדיקה תכנונית", "sec": "jewish", "u": 0, "yr": "2026"}}, {"type": "Feature", "geometry": {"type": "Point", "coordinates": [35.17, 32.104]}, "properties": {"n": "יוש/ 2/ 1/ 3/ 2/ 130", "name": "אריאל, שינוי אזור מ-מגורים עם חזית מסחרית ל-מגורים, מסחר ותעסוקה", "place": "אריאל", "st": "בבדיקה תכנונית", "sec": "jewish", "u": 0, "yr": "2026"}}, {"type": "Feature", "geometry": {"type": "Point", "coordinates": [35.12, 32.17]}, "properties": {"n": "יוש/ 7/ 1627", "name": "תכנית לשכונת שאמי", "place": "מחוזית - אזור יהודה ושומרון", "st": "הכרעה בהתנגדויות / אישור", "sec": "unknown", "u": 0, "yr": "2026"}}, {"type": "Feature", "geometry": {"type": "Point", "coordinates": [35.10087, 32.15527]}, "properties": {"n": "יוש/ 4/ 10/ 119", "name": "נופים, הרחבת שכונת מגורים", "place": "נופים,שומרון", "st": "אישור", "sec": "jewish", "u": 168, "yr": "2026"}}, {"type": "Feature", "geometry": {"type": "Point", "coordinates": [35.147, 31.653]}, "properties": {"n": "יוש/ 85/ 5/ 410", "name": "אפרת, מג' 111 שינוי בשטח בניה וקוי בנין", "place": "אפרת", "st": "אישור", "sec": "jewish", "u": 0, "yr": "2026"}}, {"type": "Feature", "geometry": {"type": "Point", "coordinates": [35.01734, 31.92953]}, "properties": {"n": "יוש/ 1/ 3/ 200", "name": "שינוי הוראות בניה במגורים בתכניות מאושרות ביישובים גני מודיעין ועלי", "place": "גני מודיעין,מטה בנימין,עלי", "st": "בבדיקה תכנונית", "sec": "jewish", "u": 0, "yr": "2026"}}, {"type": "Feature", "geometry": {"type": "Point", "coordinates": [35.12764, 32.1191]}, "properties": {"n": "יוש/ 6/ 4/ 170", "name": "רבבה - שינוי ייעוד מחד משפחתי לדו משפחתי וקביעת הוראות בינוי .", "place": "רבבה,שומרון", "st": "אישור", "sec": "jewish", "u": 0, "yr": "2026"}}, {"type": "Feature", "geometry": {"type": "Point", "coordinates": [35.07355, 32.28475]}, "properties": {"n": "יוש/ 6/ 158", "name": "הרחבת אבני חפץ", "place": "אבני חפץ,שומרון", "st": "בבדיקה תכנונית", "sec": "jewish", "u": 500, "yr": "2026"}}, {"type": "Feature", "geometry": {"type": "Point", "coordinates": [35.17, 32.104]}, "properties": {"n": "יוש/ 10/ 6/ ת/ 130", "name": "אריאל, שינוי קו בנין", "place": "אריאל", "st": "הפקדה להתנגדויות/השגות", "sec": "jewish", "u": 0, "yr": "2026"}}, {"type": "Feature", "geometry": {"type": "Point", "coordinates": [35.30621, 31.87895]}, "properties": {"n": "יוש/ 3/ 3/ 225", "name": "מעלה מכמש, בית עלמין", "place": "מטה בנימין,מעלה מכמש", "st": "אישור", "sec": "infrastructure_regional", "u": 0, "yr": "2026"}}, {"type": "Feature", "geometry": {"type": "Point", "coordinates": [35.40343, 32.07076]}, "properties": {"n": "יוש/ 2/ 13/ 310", "name": "קביעת הוראות ומגבלות בניה בתחום מגרשים מעלה אפרים", "place": "מעלה אפרים", "st": "אישור", "sec": "jewish", "u": 0, "yr": "2026"}}, {"type": "Feature", "geometry": {"type": "Point", "coordinates": [35.17, 32.104]}, "properties": {"n": "יוש/ 30/ 130", "name": "קביעת שימושים ומגבלות בניהבמגרשים המיועדים למבני ציבור", "place": "אריאל", "st": "בבדיקה תכנונית", "sec": "jewish", "u": 0, "yr": "2026"}}, {"type": "Feature", "geometry": {"type": "Point", "coordinates": [35.103, 32.176]}, "properties": {"n": "יוש/ 17/ 113", "name": "קדומים נחלת אסתר", "place": "קדומים", "st": "אישור", "sec": "jewish", "u": 1388, "yr": "2026"}}, {"type": "Feature", "geometry": {"type": "Point", "coordinates": [35.22854, 31.5969]}, "properties": {"n": "יוש/ 2/ 1/ 413", "name": "הרחבת היישוב מעלה עמוס", "place": "גוש עציון,מעלה עמוס", "st": "הפקדה להתנגדויות/השגות", "sec": "jewish", "u": 365, "yr": "2026"}}, {"type": "Feature", "geometry": {"type": "Point", "coordinates": [34.99955, 32.10675]}, "properties": {"n": "יוש/ 23/ 122", "name": "שינוי בהוראות בניה", "place": "שער השומרון,שער שומרון", "st": "אישור", "sec": "jewish", "u": 0, "yr": "2026"}}, {"type": "Feature", "geometry": {"type": "Point", "coordinates": [35.33163, 32.23571]}, "properties": {"n": "יוש/ 1/ 11/ 107", "name": "אלון מורה, שכונת מגורים", "place": "אלון מורה,שומרון", "st": "בבדיקה תכנונית", "sec": "jewish", "u": 0, "yr": "2026"}}, {"type": "Feature", "geometry": {"type": "Point", "coordinates": [35.26248, 32.0695]}, "properties": {"n": "יוש/ 9/ 237", "name": "עלי, שכונת רמת נאות חן", "place": "מטה בנימין,עלי", "st": "בבדיקה תכנונית", "sec": "jewish", "u": 0, "yr": "2026"}}]}