{"type": "FeatureCollection", "features": [{"type": "Feature", "geometry": {"type": "Point", "coordinates": [35.103, 32.176]}, "properties": {"settlement": "קדומים,שומרון", "sector": "jewish", "plans_count": 1, "units_total": 0}}, {"type": "Feature", "geometry": {"type": "Point", "coordinates": [34.95725, 31.3757]}, "properties": {"settlement": "הר חברון,טנא", "sector": "jewish", "plans_count": 1, "units_total": 0}}, {"type": "Feature", "geometry": {"type": "Point", "coordinates": [35.036, 31.938]}, "properties": {"settlement": "מודיעין עילית", "sector": "jewish", "plans_count": 2, "units_total": 0}}, {"type": "Feature", "geometry": {"type": "Point", "coordinates": [35.147, 31.653]}, "properties": {"settlement": "אפרת", "sector": "jewish", "plans_count": 5, "units_total": 0}}, {"type": "Feature", "geometry": {"type": "Point", "coordinates": [35.1323, 31.9394]}, "properties": {"settlement": "טלמון,מטה בנימין", "sector": "jewish", "plans_count": 2, "units_total": 200}}, {"type": "Feature", "geometry": {"type": "Point", "coordinates": [35.16875, 31.86233]}, "properties": {"settlement": "גבעת זאב", "sector": "jewish", "plans_count": 10, "units_total": 457}}, {"type": "Feature", "geometry": {"type": "Point", "coordinates": [35.2, 31.94]}, "properties": {"settlement": "מטה בנימין", "sector": "jewish", "plans_count": 2, "units_total": 0}}, {"type": "Feature", "geometry": {"type": "Point", "coordinates": [35.26248, 32.0695]}, "properties": {"settlement": "מטה בנימין,עלי", "sector": "jewish", "plans_count": 3, "units_total": 1}}, {"type": "Feature", "geometry": {"type": "Point", "coordinates": [35.05081, 32.24282]}, "properties": {"settlement": "סלעית,שומרון", "sector": "jewish", "plans_count": 1, "units_total": 0}}, {"type": "Feature", "geometry": {"type": "Point", "coordinates": [35.40343, 32.07076]}, "properties": {"settlement": "מעלה אפרים", "sector": "jewish", "plans_count": 2, "units_total": 0}}, {"type": "Feature", "geometry": {"type": "Point", "coordinates": [35.02239, 31.93117]}, "properties": {"settlement": "חשמונאים,מטה בנימין", "sector": "jewish", "plans_count": 1, "units_total": 478}}, {"type": "Feature", "geometry": {"type": "Point", "coordinates": [35.29949, 32.05522]}, "properties": {"settlement": "מטה בנימין,שילה", "sector": "jewish", "plans_count": 3, "units_total": 90}}, {"type": "Feature", "geometry": {"type": "Point", "coordinates": [35.16378, 32.2253]}, "properties": {"settlement": "ברכה,שומרון", "sector": "jewish", "plans_count": 1, "units_total": 922}}, {"type": "Feature", "geometry": {"type": "Point", "coordinates": [35.12677, 31.65492]}, "properties": {"settlement": "אלון שבות,גוש עציון", "sector": "jewish", "plans_count": 1, "units_total": 1006}}, {"type": "Feature", "geometry": {"type": "Point", "coordinates": [35.03208, 32.11772]}, "properties": {"settlement": "שומרון,שערי תקווה", "sector": "jewish", "plans_count": 1, "units_total": 0}}, {"type": "Feature", "geometry": {"type": "Point", "coordinates": [35.44455, 32.00054]}, "properties": {"settlement": "גלגל,ערבות הירדן", "sector": "jewish", "plans_count": 1, "units_total": 0}}, {"type": "Feature", "geometry": {"type": "Point", "coordinates": [35.061, 32.093]}, "properties": {"settlement": "אלקנה", "sector": "jewish", "plans_count": 2, "units_total": 521}}, {"type": "Feature", "geometry": {"type": "Point", "coordinates": [35.49205, 32.11287]}, "properties": {"settlement": "משואה,ערבות הירדן", "sector": "jewish", "plans_count": 1, "units_total": 517}}, {"type": "Feature", "geometry": {"type": "Point", "coordinates": [35.298, 31.776]}, "properties": {"settlement": "מעלה אדומים", "sector": "jewish", "plans_count": 3, "units_total": 0}}, {"type": "Feature", "geometry": {"type": "Point", "coordinates": [35.51563, 32.36523]}, "properties": {"settlement": "מחולה,ערבות הירדן", "sector": "jewish", "plans_count": 1, "units_total": 0}}, {"type": "Feature", "geometry": {"type": "Point", "coordinates": [35.25009, 32.11907]}, "properties": {"settlement": "כפר תפוח,שומרון", "sector": "jewish", "plans_count": 1, "units_total": 105}}, {"type": "Feature", "geometry": {"type": "Point", "coordinates": [35.33163, 32.23571]}, "properties": {"settlement": "אלון מורה,שומרון", "sector": "jewish", "plans_count": 3, "units_total": 83}}, {"type": "Feature", "geometry": {"type": "Point", "coordinates": [35.52408, 32.17283]}, "properties": {"settlement": "ארגמן,ערבות הירדן", "sector": "infrastructure_regional", "plans_count": 1, "units_total": 234}}, {"type": "Feature", "geometry": {"type": "Point", "coordinates": [35.30177, 31.74702]}, "properties": {"settlement": "גוש עציון,קדר", "sector": "jewish", "plans_count": 1, "units_total": 330}}, {"type": "Feature", "geometry": {"type": "Point", "coordinates": [35.04694, 32.11919]}, "properties": {"settlement": "עץ אפרים,שומרון", "sector": "jewish", "plans_count": 2, "units_total": 48}}, {"type": "Feature", "geometry": {"type": "Point", "coordinates": [35.093, 32.179]}, "properties": {"settlement": "קרני שומרון", "sector": "jewish", "plans_count": 3, "units_total": 0}}, {"type": "Feature", "geometry": {"type": "Point", "coordinates": [35.05317, 32.06184]}, "properties": {"settlement": "פדואל,שומרון", "sector": "jewish", "plans_count": 2, "units_total": 12}}, {"type": "Feature", "geometry": {"type": "Point", "coordinates": [35.17481, 32.42073]}, "properties": {"settlement": "מבוא דותן,שומרון", "sector": "jewish", "plans_count": 1, "units_total": 251}}, {"type": "Feature", "geometry": {"type": "Point", "coordinates": [35.42303, 32.16495]}, "properties": {"settlement": "מכורה,ערבות הירדן", "sector": "jewish", "plans_count": 1, "units_total": 358}}, {"type": "Feature", "geometry": {"type": "Point", "coordinates": [35.103, 32.176]}, "properties": {"settlement": "קדומים", "sector": "jewish", "plans_count": 3, "units_total": 1676}}, {"type": "Feature", "geometry": {"type": "Point", "coordinates": [34.99196, 32.13092]}, "properties": {"settlement": "אורנית", "sector": "jewish", "plans_count": 3, "units_total": 30}}, {"type": "Feature", "geometry": {"type": "Point", "coordinates": [34.90344, 31.36292]}, "properties": {"settlement": "הר חברון,סנסנה", "sector": "jewish", "plans_count": 1, "units_total": 100}}, {"type": "Feature", "geometry": {"type": "Point", "coordinates": [35.10656, 32.10662]}, "properties": {"settlement": "ברקן,שומרון", "sector": "jewish", "plans_count": 1, "units_total": 0}}, {"type": "Feature", "geometry": {"type": "Point", "coordinates": [35.20194, 32.33689]}, "properties": {"settlement": "שא נור,שומרון", "sector": "jewish", "plans_count": 1, "units_total": 126}}, {"type": "Feature", "geometry": {"type": "Point", "coordinates": [35.23377, 32.16861]}, "properties": {"settlement": "יצהר,שומרון", "sector": "jewish", "plans_count": 1, "units_total": 0}}, {"type": "Feature", "geometry": {"type": "Point", "coordinates": [35.04719, 31.96403]}, "properties": {"settlement": "מטה בנימין,ניל\"י", "sector": "jewish", "plans_count": 1, "units_total": 0}}, {"type": "Feature", "geometry": {"type": "Point", "coordinates": [35.0907, 32.08213]}, "properties": {"settlement": "ברוכין,שומרון", "sector": "jewish", "plans_count": 1, "units_total": 0}}, {"type": "Feature", "geometry": {"type": "Point", "coordinates": [35.40069, 31.56967]}, "properties": {"settlement": "מגילות,מגילות ים המלח,מצפה שלם", "sector": "jewish", "plans_count": 1, "units_total": 168}}, {"type": "Feature", "geometry": {"type": "Point", "coordinates": [35.21929, 31.78886]}, "properties": {"settlement": "הר חברון,חגי", "sector": "jewish", "plans_count": 1, "units_total": 225}}, {"type": "Feature", "geometry": {"type": "Point", "coordinates": [35.17, 32.104]}, "properties": {"settlement": "אריאל", "sector": "jewish", "plans_count": 5, "units_total": 0}}, {"type": "Feature", "geometry": {"type": "Point", "coordinates": [35.1323, 31.9394]}, "properties": {"settlement": "טלמון,מטה בנימין", "sector": "infrastructure_regional", "plans_count": 1, "units_total": 0}}, {"type": "Feature", "geometry": {"type": "Point", "coordinates": [35.12535, 31.66765]}, "properties": {"settlement": "גוש עציון,ראש צורים", "sector": "jewish", "plans_count": 1, "units_total": 246}}, {"type": "Feature", "geometry": {"type": "Point", "coordinates": [35.088, 31.417]}, "properties": {"settlement": "הר חברון,עתניאל", "sector": "jewish", "plans_count": 2, "units_total": 294}}, {"type": "Feature", "geometry": {"type": "Point", "coordinates": [35.008, 32.164]}, "properties": {"settlement": "אלפי מנשה", "sector": "jewish", "plans_count": 1, "units_total": 0}}, {"type": "Feature", "geometry": {"type": "Point", "coordinates": [35.33521, 31.82528]}, "properties": {"settlement": "כפר אדומים,מטה בנימין", "sector": "jewish", "plans_count": 1, "units_total": 1}}, {"type": "Feature", "geometry": {"type": "Point", "coordinates": [34.99955, 32.10675]}, "properties": {"settlement": "שער השומרון,שער שומרון", "sector": "jewish", "plans_count": 2, "units_total": 1}}, {"type": "Feature", "geometry": {"type": "Point", "coordinates": [35.12956, 31.82686]}, "properties": {"settlement": "הר אדר", "sector": "jewish", "plans_count": 1, "units_total": 0}}, {"type": "Feature", "geometry": {"type": "Point", "coordinates": [35.17, 32.104]}, "properties": {"settlement": "אריאל", "sector": "infrastructure_regional", "plans_count": 1, "units_total": 0}}, {"type": "Feature", "geometry": {"type": "Point", "coordinates": [35.256, 31.878]}, "properties": {"settlement": "מטה בנימין,פסגות", "sector": "jewish", "plans_count": 1, "units_total": 295}}, {"type": "Feature", "geometry": {"type": "Point", "coordinates": [35.18779, 31.58587]}, "properties": {"settlement": "אספר,גוש עציון", "sector": "jewish", "plans_count": 1, "units_total": 509}}, {"type": "Feature", "geometry": {"type": "Point", "coordinates": [35.12, 32.17]}, "properties": {"settlement": "שומרון", "sector": "infrastructure_regional", "plans_count": 1, "units_total": 0}}, {"type": "Feature", "geometry": {"type": "Point", "coordinates": [35.12764, 32.1191]}, "properties": {"settlement": "רבבה,שומרון", "sector": "jewish", "plans_count": 2, "units_total": 0}}, {"type": "Feature", "geometry": {"type": "Point", "coordinates": [35.06335, 32.07112]}, "properties": {"settlement": "עלי זהב,שומרון", "sector": "jewish", "plans_count": 1, "units_total": 0}}, {"type": "Feature", "geometry": {"type": "Point", "coordinates": [35.13512, 31.9262]}, "properties": {"settlement": "דולב,מטה בנימין", "sector": "jewish", "plans_count": 1, "units_total": 0}}, {"type": "Feature", "geometry": {"type": "Point", "coordinates": [35.04376, 31.37345]}, "properties": {"settlement": "הר חברון,עשהאל", "sector": "jewish", "plans_count": 1, "units_total": 342}}, {"type": "Feature", "geometry": {"type": "Point", "coordinates": [35.123, 31.693]}, "properties": {"settlement": "ביתר עילית", "sector": "jewish", "plans_count": 1, "units_total": 230}}, {"type": "Feature", "geometry": {"type": "Point", "coordinates": [35.12692, 32.00631]}, "properties": {"settlement": "חלמיש,מטה בנימין", "sector": "jewish", "plans_count": 1, "units_total": 456}}, {"type": "Feature", "geometry": {"type": "Point", "coordinates": [35.2, 31.94]}, "properties": {"settlement": "מטה בנימין", "sector": "infrastructure_regional", "plans_count": 1, "units_total": 0}}, {"type": "Feature", "geometry": {"type": "Point", "coordinates": [35.12, 32.17]}, "properties": {"settlement": "מחוזית - אזור יהודה ושומרון", "sector": "unknown", "plans_count": 1, "units_total": 0}}, {"type": "Feature", "geometry": {"type": "Point", "coordinates": [35.10087, 32.15527]}, "properties": {"settlement": "נופים,שומרון", "sector": "jewish", "plans_count": 1, "units_total": 168}}, {"type": "Feature", "geometry": {"type": "Point", "coordinates": [35.01734, 31.92953]}, "properties": {"settlement": "גני מודיעין,מטה בנימין,עלי", "sector": "jewish", "plans_count": 1, "units_total": 0}}, {"type": "Feature", "geometry": {"type": "Point", "coordinates": [35.07355, 32.28475]}, "properties": {"settlement": "אבני חפץ,שומרון", "sector": "jewish", "plans_count": 1, "units_total": 500}}, {"type": "Feature", "geometry": {"type": "Point", "coordinates": [35.30621, 31.87895]}, "properties": {"settlement": "מטה בנימין,מעלה מכמש", "sector": "infrastructure_regional", "plans_count": 1, "units_total": 0}}, {"type": "Feature", "geometry": {"type": "Point", "coordinates": [35.22854, 31.5969]}, "properties": {"settlement": "גוש עציון,מעלה עמוס", "sector": "jewish", "plans_count": 1, "units_total": 365}}]}